[{"OBJECT_NAME":"STARLINK-33585","OBJECT_ID":"2025-015AA","EPOCH":"2026-03-09T22:24:34.887168","MEAN_MOTION":15.3023146,"ECCENTRICITY":8.832e-5,"INCLINATION":53.1586,"RA_OF_ASC_NODE":320.9564,"ARG_OF_PERICENTER":96.1926,"MEAN_ANOMALY":263.9176,"EPHEMERIS_TYPE":0,"CLASSIFICATION_TYPE":"U","NORAD_CAT_ID":62782,"ELEMENT_SET_NO":999,"REV_AT_EPOCH":6424,"BSTAR":0.0016125393,"MEAN_MOTION_DOT":0.00047754,"MEAN_MOTION_DDOT":0},{"OBJECT_NAME":"SCS-01 H","OBJECT_ID":"2025-100H","EPOCH":"2026-03-09T23:19:05.376864","MEAN_MOTION":15.31767757,"ECCENTRICITY":0.00071581,"INCLINATION":97.3749,"RA_OF_ASC_NODE":145.8085,"ARG_OF_PERICENTER":277.8492,"MEAN_ANOMALY":82.1937,"EPHEMERIS_TYPE":0,"CLASSIFICATION_TYPE":"U","NORAD_CAT_ID":63989,"ELEMENT_SET_NO":999,"REV_AT_EPOCH":4566,"BSTAR":0.0011436254,"MEAN_MOTION_DOT":0.00035149,"MEAN_MOTION_DDOT":0}]
